{"type": "FeatureCollection", "features": [ {"type": "Feature", "properties": {"norad_id": 30556, "name": "FENGYUN 1C DEB", "group": "fengyun-1c-debris", "lat": -13.751803084832126, "lon": -26.298066471186846, "alt_km": 887.8901028110886, "timestamp": "2025-12-03T22:42:32.912287+00:00", "meta": {"OBJECT_NAME": "FENGYUN 1C DEB", "OBJECT_ID": "1999-025AKW", "EPOCH": "2025-12-03T11:31:14.552256", "MEAN_MOTION": 14.01353921, "ECCENTRICITY": 0.0067696, "INCLINATION": 98.7817, "RA_OF_ASC_NODE": 331.0854, "ARG_OF_PERICENTER": 263.778, "MEAN_ANOMALY": 251.1046, "EPHEMERIS_TYPE": 0, "CLASSIFICATION_TYPE": "U", "NORAD_CAT_ID": 30556, "ELEMENT_SET_NO": 999, "REV_AT_EPOCH": 96127, "BSTAR": 0.00038607, "MEAN_MOTION_DOT": 5.51e-06, "MEAN_MOTION_DDOT": 0}, "tle": {"line1": "1 30556U 99025AKW 25337.48002954  .00000551  00000+0  38607-3 0  9993", "line2": "2 30556  98.7817 331.0854 0067696 263.7780 251.1046 14.01353921961275"}}, "geometry": {"type": "Point", "coordinates": [-26.298066471186846, -13.751803084832126]}}, {"type": "Feature", "properties": {"norad_id": 30557, "name": "FENGYUN 1C DEB", "group": "fengyun-1c-debris", "lat": 8.390248483142557, "lon": -135.50426048468208, "alt_km": 854.8111920355514, "timestamp": "2025-12-03T22:42:32.912296+00:00", "meta": {"OBJECT_NAME": "FENGYUN 1C DEB", "OBJECT_ID": "1999-025AKX", "EPOCH": "2025-12-03T03:10:04.216800", "MEAN_MOTION": 14.10720476, "ECCENTRICITY": 0.00676329, "INCLINATION": 98.9215, "RA_OF_ASC_NODE": 42.36, "ARG_OF_PERICENTER": 259.6004, "MEAN_ANOMALY": 99.7539, "EPHEMERIS_TYPE": 0, "CLASSIFICATION_TYPE": "U", "NORAD_CAT_ID": 30557, "ELEMENT_SET_NO": 999, "REV_AT_EPOCH": 96165, "BSTAR": 0.0018577756, "MEAN_MOTION_DOT": 3.349e-05, "MEAN_MOTION_DDOT": 0}, "tle": {"line1": "1 30557U 99025AKX 25337.13199325  .00003349  00000+0  18578-2 0  9997", "line2": "2 30557  98.9215  42.3600 0067632 259.6004  99.7539 14.10720476961652"}}, "geometry": {"type": "Point", "coordinates": [-135.50426048468208, 8.390248483142557]}}, {"type": "Feature", "properties": {"norad_id": 30558, "name": "FENGYUN 1C DEB", "group": "fengyun-1c-debris", "lat": -18.250327842481294, "lon": 122.75671497168528, "alt_km": 933.812084385384, "timestamp": "2025-12-03T22:42:32.912306+00:00", "meta": {"OBJECT_NAME": "FENGYUN 1C DEB", "OBJECT_ID": "1999-025AKY", "EPOCH": "2025-11-30T15:16:00.558048", "MEAN_MOTION": 13.28421345, "ECCENTRICITY": 0.042304, "INCLINATION": 99.467, "RA_OF_ASC_NODE": 116.5631, "ARG_OF_PERICENTER": 302.4359, "MEAN_ANOMALY": 53.651, "EPHEMERIS_TYPE": 0, "CLASSIFICATION_TYPE": "U", "NORAD_CAT_ID": 30558, "ELEMENT_SET_NO": 999, "REV_AT_EPOCH": 90597, "BSTAR": 0.0035398, "MEAN_MOTION_DOT": 2.593e-05, "MEAN_MOTION_DDOT": 0}, "tle": {"line1": "1 30558U 99025AKY 25334.63611757  .00002593  00000+0  35398-2 0  9997", "line2": "2 30558  99.4670 116.5631 0423040 302.4359  53.6510 13.28421345905973"}}, "geometry": {"type": "Point", "coordinates": [122.75671497168528, -18.250327842481294]}}, {"type": "Feature", "properties": {"norad_id": 30560, "name": "FENGYUN 1C DEB", "group": "fengyun-1c-debris", "lat": 80.73234755326715, "lon": -97.21070393965996, "alt_km": 899.7139180449403, "timestamp": "2025-12-03T22:42:32.912317+00:00", "meta": {"OBJECT_NAME": "FENGYUN 1C DEB", "OBJECT_ID": "1999-025ALA", "EPOCH": "2025-12-03T12:43:15.557088", "MEAN_MOTION": 14.17009365, "ECCENTRICITY": 0.0114575, "INCLINATION": 98.6633, "RA_OF_ASC_NODE": 331.506, "ARG_OF_PERICENTER": 238.35, "MEAN_ANOMALY": 247.2164, "EPHEMERIS_TYPE": 0, "CLASSIFICATION_TYPE": "U", "NORAD_CAT_ID": 30560, "ELEMENT_SET_NO": 999, "REV_AT_EPOCH": 97238, "BSTAR": 0.0004087, "MEAN_MOTION_DOT": 8.32e-06, "MEAN_MOTION_DDOT": 0}, "tle": {"line1": "1 30560U 99025ALA 25337.53004117  .00000832  00000+0  40870-3 0  9994", "line2": "2 30560  98.6633 331.5060 0114575 238.3500 247.2164 14.17009365972384"}}, "geometry": {"type": "Point", "coordinates": [-97.21070393965996, 80.73234755326715]}}, {"type": "Feature", "properties": {"norad_id": 30561, "name": "FENGYUN 1C DEB", "group": "fengyun-1c-debris", "lat": 8.200321359740546, "lon": -20.938183526633257, "alt_km": 884.8814834109116, "timestamp": "2025-12-03T22:42:32.912326+00:00", "meta": {"OBJECT_NAME": "FENGYUN 1C DEB", "OBJECT_ID": "1999-025ALB", "EPOCH": "2025-12-03T11:28:57.598752", "MEAN_MOTION": 14.11254311, "ECCENTRICITY": 0.0060405, "INCLINATION": 98.7247, "RA_OF_ASC_NODE": 339.8753, "ARG_OF_PERICENTER": 139.8968, "MEAN_ANOMALY": 13.8599, "EPHEMERIS_TYPE": 0, "CLASSIFICATION_TYPE": "U", "NORAD_CAT_ID": 30561, "ELEMENT_SET_NO": 999, "REV_AT_EPOCH": 96847, "BSTAR": 0.00045497, "MEAN_MOTION_DOT": 7.93e-06, "MEAN_MOTION_DDOT": 0}, "tle": {"line1": "1 30561U 99025ALB 25337.47844443  .00000793  00000+0  45497-3 0  9998", "line2": "2 30561  98.7247 339.8753 0060405 139.8968  13.8599 14.11254311968473"}}, "geometry": {"type": "Point", "coordinates": [-20.938183526633257, 8.200321359740546]}}, {"type": "Feature", "properties": {"norad_id": 30562, "name": "FENGYUN 1C DEB", "group": "fengyun-1c-debris", "lat": -44.050156960977375, "lon": -142.84891667156342, "alt_km": 804.996551086083, "timestamp": "2025-12-03T22:42:32.912334+00:00", "meta": {"OBJECT_NAME": "FENGYUN 1C DEB", "OBJECT_ID": "1999-025ALC", "EPOCH": "2025-12-03T03:10:50.346624", "MEAN_MOTION": 14.22944556, "ECCENTRICITY": 0.00584453, "INCLINATION": 98.7648, "RA_OF_ASC_NODE": 44.9246, "ARG_OF_PERICENTER": 293.3817, "MEAN_ANOMALY": 85.9972, "EPHEMERIS_TYPE": 0, "CLASSIFICATION_TYPE": "U", "NORAD_CAT_ID": 30562, "ELEMENT_SET_NO": 999, "REV_AT_EPOCH": 96863, "BSTAR": 0.0020417181, "MEAN_MOTION_DOT": 4.632e-05, "MEAN_MOTION_DDOT": 0}, "tle": {"line1": "1 30562U 99025ALC 25337.13252716  .00004632  00000+0  20417-2 0  9998", "line2": "2 30562  98.7648  44.9246 0058445 293.3817  85.9972 14.22944556968632"}}, "geometry": {"type": "Point", "coordinates": [-142.84891667156342, -44.050156960977375]}}, {"type": "Feature", "properties": {"norad_id": 30564, "name": "FENGYUN 1C DEB", "group": "fengyun-1c-debris", "lat": -15.997596819946674, "lon": -7.4699866640175285, "alt_km": 1016.3357088683006, "timestamp": "2025-12-03T22:42:32.912343+00:00", "meta": {"OBJECT_NAME": "FENGYUN 1C DEB", "OBJECT_ID": "1999-025ALE", "EPOCH": "2025-12-03T07:29:35.038176", "MEAN_MOTION": 14.05717602, "ECCENTRICITY": 0.0202894, "INCLINATION": 98.7966, "RA_OF_ASC_NODE": 349.3697, "ARG_OF_PERICENTER": 145.282, "MEAN_ANOMALY": 232.8139, "EPHEMERIS_TYPE": 0, "CLASSIFICATION_TYPE": "U", "NORAD_CAT_ID": 30564, "ELEMENT_SET_NO": 999, "REV_AT_EPOCH": 96163, "BSTAR": 0.00079356, "MEAN_MOTION_DOT": 1.517e-05, "MEAN_MOTION_DDOT": 0}, "tle": {"line1": "1 30564U 99025ALE 25337.31221109  .00001517  00000+0  79356-3 0  9998", "line2": "2 30564  98.7966 349.3697 0202894 145.2820 232.8139 14.05717602961639"}}, "geometry": {"type": "Point", "coordinates": [-7.4699866640175285, -15.997596819946674]}}, {"type": "Feature", "properties": {"norad_id": 30565, "name": "FENGYUN 1C DEB", "group": "fengyun-1c-debris", "lat": 7.919716579820707, "lon": -152.48888117967425, "alt_km": 760.7755163381835, "timestamp": "2025-12-03T22:42:32.912352+00:00", "meta": {"OBJECT_NAME": "FENGYUN 1C DEB", "OBJECT_ID": "1999-025ALF", "EPOCH": "2025-12-02T14:34:01.160832", "MEAN_MOTION": 14.09825941, "ECCENTRICITY": 0.01429748, "INCLINATION": 98.4539, "RA_OF_ASC_NODE": 207.4379, "ARG_OF_PERICENTER": 24.8067, "MEAN_ANOMALY": 30.245, "EPHEMERIS_TYPE": 0, "CLASSIFICATION_TYPE": "U", "NORAD_CAT_ID": 30565, "ELEMENT_SET_NO": 999, "REV_AT_EPOCH": 95784, "BSTAR": 0.0023180678, "MEAN_MOTION_DOT": 4.443e-05, "MEAN_MOTION_DDOT": 0}, "tle": {"line1": "1 30565U 99025ALF 25336.60695788  .00004443  00000+0  23181-2 0  9993", "line2": "2 30565  98.4539 207.4379 0142974  24.8067  30.2450 14.09825941957845"}}, "geometry": {"type": "Point", "coordinates": [-152.48888117967425, 7.919716579820707]}}, {"type": "Feature", "properties": {"norad_id": 30566, "name": "FENGYUN 1C DEB", "group": "fengyun-1c-debris", "lat": -70.59269524958152, "lon": 178.80299337122707, "alt_km": 827.111166370978, "timestamp": "2025-12-03T22:42:32.912361+00:00", "meta": {"OBJECT_NAME": "FENGYUN 1C DEB", "OBJECT_ID": "1999-025ALG", "EPOCH": "2025-12-03T02:55:44.842656", "MEAN_MOTION": 14.11610353, "ECCENTRICITY": 0.0068068, "INCLINATION": 99.217, "RA_OF_ASC_NODE": 25.4015, "ARG_OF_PERICENTER": 208.4726, "MEAN_ANOMALY": 177.8192, "EPHEMERIS_TYPE": 0, "CLASSIFICATION_TYPE": "U", "NORAD_CAT_ID": 30566, "ELEMENT_SET_NO": 999, "REV_AT_EPOCH": 96247, "BSTAR": 0.0017782601, "MEAN_MOTION_DOT": 3.257e-05, "MEAN_MOTION_DDOT": 0}, "tle": {"line1": "1 30566U 99025ALG 25337.12204679  .00003257  00000+0  17783-2 0  9990", "line2": "2 30566  99.2170  25.4015 0068068 208.4726 177.8192 14.11610353962472"}}, "geometry": {"type": "Point", "coordinates": [178.80299337122707, -70.59269524958152]}}, {"type": "Feature", "properties": {"norad_id": 30567, "name": "FENGYUN 1C DEB", "group": "fengyun-1c-debris", "lat": -60.43679343627059, "lon": -15.333899030231562, "alt_km": 861.4533072686945, "timestamp": "2025-12-03T22:42:32.912370+00:00", "meta": {"OBJECT_NAME": "FENGYUN 1C DEB", "OBJECT_ID": "1999-025ALH", "EPOCH": "2025-12-03T11:48:10.789920", "MEAN_MOTION": 14.0888451, "ECCENTRICITY": 0.0108352, "INCLINATION": 98.7751, "RA_OF_ASC_NODE": 328.4221, "ARG_OF_PERICENTER": 215.5402, "MEAN_ANOMALY": 298.0861, "EPHEMERIS_TYPE": 0, "CLASSIFICATION_TYPE": "U", "NORAD_CAT_ID": 30567, "ELEMENT_SET_NO": 999, "REV_AT_EPOCH": 96643, "BSTAR": 0.00040308, "MEAN_MOTION_DOT": 6.92e-06, "MEAN_MOTION_DDOT": 0}, "tle": {"line1": "1 30567U 99025ALH 25337.49179155  .00000692  00000+0  40308-3 0  9991", "line2": "2 30567  98.7751 328.4221 0108352 215.5402 298.0861 14.08884510966431"}}, "geometry": {"type": "Point", "coordinates": [-15.333899030231562, -60.43679343627059]}}]}